IRIDIUM 166             
1 43570U 18061B   24172.58613866  .00000083  00000+0  22459-4 0  9990
2 43570  86.3975   0.3907 0002258  96.5576 263.5877 14.34216024309257
IRIDIUM 158             
1 43571U 18061C   24172.55442139  .00000304  00000+0  10132-3 0  9991
2 43571  86.3973   0.4133 0002313  88.7041 271.4420 14.34220892309216
IRIDIUM 165             
1 43572U 18061D   24172.57979709  .00000026  00000+0  21433-5 0  9991
2 43572  86.3974   0.4351 0002303  89.0058 271.1401 14.34218145309248
IRIDIUM 155             
1 43573U 18061E   24172.61150983  .00000037  00000+0  63268-5 0  9996
2 43573  86.3971   0.3270 0002191  95.9237 264.2208 14.34216967309210
IRIDIUM 154             
1 43574U 18061F   24172.59248173  .00000021  00000+0  54735-6 0  9996
2 43574  86.3973   0.4327 0001969  83.0354 277.1065 14.34217780309260
IRIDIUM 163             
1 43575U 18061G   24172.57345441 -.00000002  00000+0 -78055-5 0  9992
2 43575  86.3970   0.3788 0002021  90.0490 270.0938 14.34217632309231
IRIDIUM 156             
1 43576U 18061H   24172.61785127  .00000368  00000+0  12439-3 0  9992
2 43576  86.3972   0.3667 0002304  90.9262 269.2198 14.34220126309230
IRIDIUM 164             
1 43577U 18061J   24172.59882516  .00000215  00000+0  69713-4 0  9999
2 43577  86.3973   0.4036 0002342  82.1265 278.0196 14.34217829309277
